SENTINEL-6              
1 46984U 20086A   24189.21909870 -.00000063  00000+0 -88863-5 0  9995
2 46984  66.0394 169.6636 0007954 270.1965  89.8138 12.80929762169518
